[{"OBJECT_NAME":"QIANFAN-80","OBJECT_ID":"2025-046H","EPOCH":"2026-03-09T21:44:23.947008","MEAN_MOTION":13.50999558,"ECCENTRICITY":0.00119514,"INCLINATION":88.9752,"RA_OF_ASC_NODE":310.8022,"ARG_OF_PERICENTER":238.4861,"MEAN_ANOMALY":121.5124,"EPHEMERIS_TYPE":0,"CLASSIFICATION_TYPE":"U","NORAD_CAT_ID":63166,"ELEMENT_SET_NO":999,"REV_AT_EPOCH":5930,"BSTAR":0.00020039103,"MEAN_MOTION_DOT":1.41e-6,"MEAN_MOTION_DDOT":0},{"OBJECT_NAME":"THORAD AGENA D DEB","OBJECT_ID":"1970-025CT","EPOCH":"2026-03-09T14:48:00.994752","MEAN_MOTION":13.56864482,"ECCENTRICITY":0.0016937,"INCLINATION":100.1422,"RA_OF_ASC_NODE":100.0474,"ARG_OF_PERICENTER":124.457,"MEAN_ANOMALY":235.817,"EPHEMERIS_TYPE":0,"CLASSIFICATION_TYPE":"U","NORAD_CAT_ID":4744,"ELEMENT_SET_NO":999,"REV_AT_EPOCH":76176,"BSTAR":0.00014632,"MEAN_MOTION_DOT":5.6e-7,"MEAN_MOTION_DDOT":0}]
